NORAD_CAT_ID,OBJECT_NAME,OBJECT_TYPE,EPOCH,MEAN_MOTION,ECCENTRICITY,INCLINATION,RA_OF_ASC_NODE,ARG_OF_PERICENTER,MEAN_ANOMALY,BSTAR,MEAN_MOTION_DOT,MEAN_MOTION_DDOT,TLE_LINE0,TLE_LINE1,TLE_LINE2,SEMIMAJOR_AXIS,PERIOD,APOGEE,PERIGEE,DECAYED
55310.0,STARLINK-5309,PAYLOAD,2024-04-21 21:16:00,14.98329282,0.0002579,69.9993,296.2146,259.6243,100.4625,6.8784e-05,7.28e-06,0.0,0 STARLINK-5309,1 55310U 23010AT  24112.88611423  .00000728  00000-0  68784-4 0  9997,2 55310  69.9993 296.2146 0002579 259.6243 100.4625 14.98329282 70895,6950.195,96.107,573.853,570.268,0.0
55310.0,STARLINK-5309,PAYLOAD,2024-04-22 19:41:53,14.98324809,0.0002619,69.9995,293.8582,256.8435,103.2432,2.0613e-06,-6.8e-07,0.0,0 STARLINK-5309,1 55310U 23010AT  24113.82075948 -.00000068  00000-0  20613-5 0  9996,2 55310  69.9995 293.8582 0002619 256.8435 103.2432 14.98324809 71035,6950.209,96.107,573.894,570.254,0.0
55310.0,STARLINK-5309,PAYLOAD,2024-04-23 14:55:30,14.98330206,0.000273,69.9991,291.8375,258.8095,101.2757,2.8052e-05,2.42e-06,0.0,0 STARLINK-5309,1 55310U 23010AT  24114.62187614  .00000242  00000-0  28052-4 0  9996,2 55310  69.9991 291.8375 0002730 258.8095 101.2757 14.98330206 71156,6950.192,96.107,573.955,570.16,0.0
55310.0,STARLINK-5309,PAYLOAD,2024-04-23 19:43:54,14.98330663,0.0002705,69.9994,291.3327,257.6897,102.3959,3.5768e-05,3.34e-06,0.0,0 STARLINK-5309,1 55310U 23010AT  24114.82215568  .00000334  00000-0  35768-4 0  9992,2 55310  69.9994 291.3327 0002705 257.6897 102.3959 14.98330663 70860,6950.191,96.107,573.936,570.176,0.0
55310.0,STARLINK-5309,PAYLOAD,2024-04-23 21:20:02,14.98331297,0.0002708,69.9994,291.1644,258.1674,101.9181,4.1601e-05,4.03e-06,0.0,0 STARLINK-5309,1 55310U 23010AT  24114.88891511  .00000403  00000-0  41601-4 0  9996,2 55310  69.9994 291.1644 0002708 258.1674 101.9181 14.98331297 71195,6950.189,96.107,573.936,570.172,0.0
55310.0,STARLINK-5309,PAYLOAD,2024-04-24 13:21:23,14.98328183,0.0002726,69.9995,289.4807,254.5671,105.5187,6.6975e-05,7.06e-06,0.0,0 STARLINK-5309,1 55310U 23010AT  24115.55651646  .00000706  00000-0  66975-4 0  9991,2 55310  69.9995 289.4807 0002726 254.5671 105.5187 14.98328183 71291,6950.199,96.107,573.958,570.169,0.0
55310.0,STARLINK-5309,PAYLOAD,2024-04-24 19:45:55,14.98329472,0.00027,69.9998,288.8075,254.281,105.8052,7.915e-05,8.52e-06,0.0,0 STARLINK-5309,1 55310U 23010AT  24115.82355573  .00000852  00000-0  79150-4 0  9992,2 55310  69.9998 288.8075 0002700 254.2810 105.8052 14.98329472 71014,6950.195,96.107,573.936,570.183,0.0
55310.0,STARLINK-5309,PAYLOAD,2024-04-24 21:22:03,14.9832965,0.0002708,69.9997,288.6391,255.1046,104.9813,7.8722e-05,8.46e-06,0.0,0 STARLINK-5309,1 55310U 23010AT  24115.89031570  .00000846  00000-0  78722-4 0  9994,2 55310  69.9997 288.6391 0002708 255.1046 104.9813 14.98329650 71340,6950.194,96.107,573.941,570.177,0.0
55310.0,STARLINK-5309,PAYLOAD,2024-04-25 14:59:31,14.9833154,0.0002716,69.9999,286.7882,255.8726,104.2131,2.5644e-05,2.13e-06,0.0,0 STARLINK-5309,1 55310U 23010AT  24116.62467527  .00000213  00000-0  25644-4 0  9994,2 55310  69.9999 286.7882 0002716 255.8726 104.2131 14.98331540 71456,6950.188,96.107,573.941,570.165,0.0
55310.0,STARLINK-5309,PAYLOAD,2024-04-25 19:47:56,14.98331164,0.0002728,70.0,286.2834,256.6925,103.3929,2.0396e-05,1.5e-06,0.0,0 STARLINK-5309,1 55310U 23010AT  24116.82495599  .00000150  00000-0  20396-4 0  9995,2 55310  70.0000 286.2834 0002728 256.6925 103.3929 14.98331164 71162,6950.189,96.107,573.95,570.158,0.0
55310.0,STARLINK-5309,PAYLOAD,2024-04-25 21:24:04,14.98331621,0.0002722,70.0,286.1145,257.2439,102.8415,2.5694e-05,2.14e-06,0.0,0 STARLINK-5309,1 55310U 23010AT  24116.89171553  .00000214  00000-0  25694-4 0  9990,2 55310  70.0000 286.1145 0002722 257.2439 102.8415 14.98331621 71495,6950.188,96.107,573.945,570.161,0.0
55310.0,STARLINK-5309,PAYLOAD,2024-04-26 13:25:25,14.98328048,0.0002736,70.0001,284.4314,255.3059,104.7797,-2.2414e-05,-3.6e-06,0.0,0 STARLINK-5309,1 55310U 23010AT  24117.55931891 -.00000360  00000-0 -22414-4 0  9994,2 55310  70.0001 284.4314 0002736 255.3059 104.7797 14.98328048 71591,6950.199,96.107,573.966,570.162,0.0
55310.0,STARLINK-5309,PAYLOAD,2024-04-26 18:13:49,14.9833069,0.0002705,70.0001,283.9273,256.759,103.3267,7.6022e-06,-2e-08,0.0,0 STARLINK-5309,1 55310U 23010AT  24117.75959668 -.00000002  00000-0  76022-5 0  9995,2 55310  70.0001 283.9273 0002705 256.7590 103.3267 14.98330690 71627,6950.191,96.107,573.936,570.176,0.0
55310.0,STARLINK-5309,PAYLOAD,2024-04-27 03:50:37,14.98330826,0.0002609,70.0002,282.9166,262.1687,97.9176,1.7654e-05,1.18e-06,0.0,0 STARLINK-5309,1 55310U 23010AT  24118.16015694  .00000118  00000-0  17654-4 0  9995,2 55310  70.0002 282.9166 0002609 262.1687  97.9176 14.98330826 71368,6950.19,96.107,573.869,570.242,0.0
55310.0,STARLINK-5309,PAYLOAD,2024-04-27 11:51:17,14.98336609,0.0002749,69.9997,282.074,267.0244,93.06,0.00010768,1.192e-05,0.0,0 STARLINK-5309,1 55310U 23010AT  24118.49394994  .00001192  00000-0  10768-3 0  9995,2 55310  69.9997 282.0740 0002749 267.0244  93.0600 14.98336609 71415,6950.172,96.107,573.948,570.127,0.0
55310.0,STARLINK-5309,PAYLOAD,2024-04-27 13:27:25,14.98336887,0.0002742,69.9998,281.9056,267.3827,92.7018,0.0001086,1.203e-05,0.0,0 STARLINK-5309,1 55310U 23010AT  24118.56070910  .00001203  00000-0  10860-3 0  9998,2 55310  69.9998 281.9056 0002742 267.3827  92.7018 14.98336887 71740,6950.172,96.107,573.942,570.131,0.0
55310.0,STARLINK-5309,PAYLOAD,2024-04-27 21:28:04,14.98343806,0.0002769,69.9996,281.0639,269.6841,90.4001,0.00017599,2.008e-05,0.0,0 STARLINK-5309,1 55310U 23010AT  24118.89450143  .00002008  00000-0  17599-3 0  9994,2 55310  69.9996 281.0639 0002769 269.6841  90.4001 14.98343806 71797,6950.15,96.106,573.94,570.091,0.0
55310.0,STARLINK-5309,PAYLOAD,2024-04-28 11:53:18,14.98324794,0.0002432,69.9998,279.5503,262.7474,97.3408,-2.3303e-05,-3.71e-06,0.0,0 STARLINK-5309,1 55310U 23010AT  24119.49535810 -.00000371  00000-0 -23303-4 0  9990,2 55310  69.9998 279.5503 0002432 262.7474  97.3408 14.98324794 71561,6950.209,96.107,573.764,570.384,0.0
55310.0,STARLINK-5309,PAYLOAD,2024-04-28 13:29:27,14.98317636,0.0002894,69.9991,279.3805,264.2075,95.8754,-0.00010564,-1.353e-05,0.0,0 STARLINK-5309,1 55310U 23010AT  24119.56212423 -.00001353  00000-0 -10564-3 0  9995,2 55310  69.9991 279.3805 0002894 264.2075  95.8754 14.98317636 71893,6950.231,96.108,574.108,570.085,0.0
55310.0,STARLINK-5309,PAYLOAD,2024-04-28 19:53:59,14.98319021,0.0002827,69.9994,278.7071,265.9736,94.11,-0.00010428,-1.337e-05,0.0,0 STARLINK-5309,1 55310U 23010AT  24119.82916511 -.00001337  00000-0 -10428-3 0  9994,2 55310  69.9994 278.7071 0002827 265.9736  94.1100 14.98319021 71619,6950.227,96.108,574.057,570.127,0.0
55310.0,STARLINK-5309,PAYLOAD,2024-04-29 11:55:19,14.98331797,0.0002778,69.9996,277.0234,267.5669,92.5172,-5.2643e-05,-7.21e-06,0.0,0 STARLINK-5309,1 55310U 23010AT  24120.49675750 -.00000721  00000-0 -52643-4 0  9998,2 55310  69.9996 277.0234 0002778 267.5669  92.5172 14.98331797 71718,6950.187,96.107,573.983,570.122,0.0
55310.0,STARLINK-5309,PAYLOAD,2024-04-29 13:31:27,14.98331514,0.0002805,69.9995,276.855,267.7152,92.3685,-4.9567e-05,-6.84e-06,0.0,0 STARLINK-5309,1 55310U 23010AT  24120.56351751 -.00000684  00000-0 -49567-4 0  9997,2 55310  69.9995 276.8550 0002805 267.7152  92.3685 14.98331514 72046,6950.188,96.107,574.003,570.104,0.0
55310.0,STARLINK-5309,PAYLOAD,2024-04-29 19:55:59,14.98336933,0.0002846,69.9994,276.182,264.5386,95.5448,-4.2604e-05,-6.01e-06,0.0,0 STARLINK-5309,1 55310U 23010AT  24120.83055341 -.00000601  00000-0 -42604-4 0  9997,2 55310  69.9994 276.1820 0002846 264.5386  95.5448 14.98336933 72083,6950.171,96.107,574.014,570.058,0.0
55310.0,STARLINK-5309,PAYLOAD,2024-04-30 15:09:37,14.98320737,0.0003053,69.9989,274.161,267.5485,92.5325,0.00017645,2.012e-05,0.0,0 STARLINK-5309,1 55310U 23010AT  24121.63167897  .00002012  00000-0  17645-3 0  9998,2 55310  69.9989 274.1610 0003053 267.5485  92.5325 14.98320737 72206,6950.222,96.108,574.208,569.965,0.0
55310.0,STARLINK-5309,PAYLOAD,2024-04-30 19:58:01,14.98325733,0.0003085,69.999,273.656,267.8709,92.2097,0.00015348,1.739e-05,0.0,0 STARLINK-5309,1 55310U 23010AT  24121.83195736  .00001739  00000-0  15348-3 0  9996,2 55310  69.9990 273.6560 0003085 267.8709  92.2097 14.98325733 71914,6950.206,96.107,574.215,569.927,0.0
55310.0,STARLINK-5309,PAYLOAD,2024-05-01 03:58:41,14.98330916,0.0002967,69.9995,272.8136,266.5159,93.5661,0.00013148,1.476e-05,0.0,0 STARLINK-5309,1 55310U 23010AT  24122.16575540  .00001476  00000-0  13148-3 0  9992,2 55310  69.9995 272.8136 0002967 266.5159  93.5661 14.98330916 72283,6950.19,96.107,574.117,569.993,0.0
55310.0,STARLINK-5309,PAYLOAD,2024-05-02 12:01:20,14.98357466,0.0002903,69.9998,269.4483,248.5069,111.5781,0.00033108,3.862e-05,0.0,0 STARLINK-5309,1 55310U 23010AT  24123.50093084  .00003862  00000-0  33108-3 0  9998,2 55310  69.9998 269.4483 0002903 248.5069 111.5781 14.98357466 72163,6950.108,96.105,573.991,569.955,0.0
55310.0,STARLINK-5309,PAYLOAD,2024-05-02 13:37:28,14.9835741,0.0003061,70.0001,269.2798,220.2508,139.8424,0.0003027,3.523e-05,0.0,0 STARLINK-5309,1 55310U 23010AT  24123.56768836  .00003523  00000-0  30270-3 0  9999,2 55310  70.0001 269.2798 0003061 220.2508 139.8424 14.98357410 72491,6950.108,96.105,574.101,569.846,0.0
55310.0,STARLINK-5309,PAYLOAD,2024-05-02 20:01:59,14.98366925,0.0003085,69.9997,268.6071,266.9074,93.1732,0.00039449,4.622e-05,0.0,0 STARLINK-5309,1 55310U 23010AT  24123.83471904  .00004622  00000-0  39449-3 0  9994,2 55310  69.9997 268.6071 0003085 266.9074  93.1732 14.98366925 72215,6950.079,96.105,574.088,569.8,0.0
55310.0,STARLINK-5309,PAYLOAD,2024-05-03 02:26:32,14.98348162,0.0003794,69.9994,267.9326,264.6125,95.4602,0.00010716,1.186e-05,0.0,0 STARLINK-5309,1 55310U 23010AT  24124.10176706  .00001186  00000-0  10716-3 0  9995,2 55310  69.9994 267.9326 0003794 264.6125  95.4602 14.98348162 72254,6950.137,96.106,574.639,569.365,0.0
